[{"OBJECT_NAME":"STARLETTE","OBJECT_ID":"1975-010A","EPOCH":"2026-04-26T20:02:36.239424","MEAN_MOTION":13.82349737,"ECCENTRICITY":0.0205649,"INCLINATION":49.827,"RA_OF_ASC_NODE":307.2901,"ARG_OF_PERICENTER":253.3913,"MEAN_ANOMALY":104.4308,"EPHEMERIS_TYPE":0,"CLASSIFICATION_TYPE":"U","NORAD_CAT_ID":7646,"ELEMENT_SET_NO":999,"REV_AT_EPOCH":58743,"BSTAR":5.1999e-6,"MEAN_MOTION_DOT":-1.34e-6,"MEAN_MOTION_DDOT":0},{"OBJECT_NAME":"LAGEOS 1","OBJECT_ID":"1976-039A","EPOCH":"2026-04-26T09:46:07.284000","MEAN_MOTION":6.38664741,"ECCENTRICITY":0.0044672,"INCLINATION":109.8066,"RA_OF_ASC_NODE":161.618,"ARG_OF_PERICENTER":313.3663,"MEAN_ANOMALY":63.4606,"EPHEMERIS_TYPE":0,"CLASSIFICATION_TYPE":"U","NORAD_CAT_ID":8820,"ELEMENT_SET_NO":999,"REV_AT_EPOCH":90983,"BSTAR":0,"MEAN_MOTION_DOT":6.0e-8,"MEAN_MOTION_DDOT":0},{"OBJECT_NAME":"AJISAI (EGS)","OBJECT_ID":"1986-061A","EPOCH":"2026-04-26T19:59:07.492704","MEAN_MOTION":12.44515984,"ECCENTRICITY":0.0011425,"INCLINATION":50.0098,"RA_OF_ASC_NODE":305.3106,"ARG_OF_PERICENTER":50.4483,"MEAN_ANOMALY":78.8564,"EPHEMERIS_TYPE":0,"CLASSIFICATION_TYPE":"U","NORAD_CAT_ID":16908,"ELEMENT_SET_NO":999,"REV_AT_EPOCH":47399,"BSTAR":0.00010785,"MEAN_MOTION_DOT":-8.2e-7,"MEAN_MOTION_DDOT":0},{"OBJECT_NAME":"COSMOS 1989 (ETALON 1)","OBJECT_ID":"1989-001C","EPOCH":"2026-04-26T09:35:17.140416","MEAN_MOTION":2.13155948,"ECCENTRICITY":0.00233564,"INCLINATION":64.9174,"RA_OF_ASC_NODE":73.9655,"ARG_OF_PERICENTER":217.6679,"MEAN_ANOMALY":327.544,"EPHEMERIS_TYPE":0,"CLASSIFICATION_TYPE":"U","NORAD_CAT_ID":19751,"ELEMENT_SET_NO":999,"REV_AT_EPOCH":29026,"BSTAR":0,"MEAN_MOTION_DOT":3.0e-8,"MEAN_MOTION_DDOT":0},{"OBJECT_NAME":"COSMOS 2024 (ETALON 2)","OBJECT_ID":"1989-039C","EPOCH":"2026-04-26T04:29:19.251168","MEAN_MOTION":2.13204556,"ECCENTRICITY":0.00205394,"INCLINATION":64.9666,"RA_OF_ASC_NODE":312.327,"ARG_OF_PERICENTER":212.839,"MEAN_ANOMALY":317.9164,"EPHEMERIS_TYPE":0,"CLASSIFICATION_TYPE":"U","NORAD_CAT_ID":20026,"ELEMENT_SET_NO":999,"REV_AT_EPOCH":28739,"BSTAR":0,"MEAN_MOTION_DOT":-2.4e-7,"MEAN_MOTION_DDOT":0},{"OBJECT_NAME":"LAGEOS 2","OBJECT_ID":"1992-070B","EPOCH":"2026-04-21T05:19:35.882976","MEAN_MOTION":6.47293633,"ECCENTRICITY":0.0137666,"INCLINATION":52.6637,"RA_OF_ASC_NODE":302.6665,"ARG_OF_PERICENTER":162.3863,"MEAN_ANOMALY":358.4565,"EPHEMERIS_TYPE":0,"CLASSIFICATION_TYPE":"U","NORAD_CAT_ID":22195,"ELEMENT_SET_NO":999,"REV_AT_EPOCH":79173,"BSTAR":0,"MEAN_MOTION_DOT":-9.0e-8,"MEAN_MOTION_DDOT":0},{"OBJECT_NAME":"STELLA","OBJECT_ID":"1993-061B","EPOCH":"2026-04-26T19:54:57.020832","MEAN_MOTION":14.27468953,"ECCENTRICITY":0.0006945,"INCLINATION":98.7757,"RA_OF_ASC_NODE":180.8881,"ARG_OF_PERICENTER":35.0298,"MEAN_ANOMALY":111.3628,"EPHEMERIS_TYPE":0,"CLASSIFICATION_TYPE":"U","NORAD_CAT_ID":22824,"ELEMENT_SET_NO":999,"REV_AT_EPOCH":69744,"BSTAR":3.1588e-6,"MEAN_MOTION_DOT":-3.7e-7,"MEAN_MOTION_DDOT":0},{"OBJECT_NAME":"LARETS","OBJECT_ID":"2003-042F","EPOCH":"2026-04-26T20:25:14.977056","MEAN_MOTION":14.63859555,"ECCENTRICITY":0.0011992,"INCLINATION":98.4101,"RA_OF_ASC_NODE":277.9941,"ARG_OF_PERICENTER":190.8226,"MEAN_ANOMALY":169.2719,"EPHEMERIS_TYPE":0,"CLASSIFICATION_TYPE":"U","NORAD_CAT_ID":27944,"ELEMENT_SET_NO":999,"REV_AT_EPOCH":20585,"BSTAR":2.2448e-5,"MEAN_MOTION_DOT":6.7e-7,"MEAN_MOTION_DDOT":0},{"OBJECT_NAME":"LARES","OBJECT_ID":"2012-006A","EPOCH":"2026-04-26T19:17:34.908000","MEAN_MOTION":12.54931945,"ECCENTRICITY":0.000636,"INCLINATION":69.493,"RA_OF_ASC_NODE":20.0134,"ARG_OF_PERICENTER":90.5552,"MEAN_ANOMALY":269.6203,"EPHEMERIS_TYPE":0,"CLASSIFICATION_TYPE":"U","NORAD_CAT_ID":38077,"ELEMENT_SET_NO":999,"REV_AT_EPOCH":65062,"BSTAR":-4.3971e-6,"MEAN_MOTION_DOT":-3.9e-7,"MEAN_MOTION_DDOT":0},{"OBJECT_NAME":"LARES-2","OBJECT_ID":"2022-080A","EPOCH":"2026-04-24T22:52:30.311904","MEAN_MOTION":6.38965121,"ECCENTRICITY":0.00053586,"INCLINATION":70.1721,"RA_OF_ASC_NODE":323.5864,"ARG_OF_PERICENTER":346.5295,"MEAN_ANOMALY":13.5246,"EPHEMERIS_TYPE":0,"CLASSIFICATION_TYPE":"U","NORAD_CAT_ID":53105,"ELEMENT_SET_NO":999,"REV_AT_EPOCH":8826,"BSTAR":0,"MEAN_MOTION_DOT":-1.0e-7,"MEAN_MOTION_DDOT":0}]
