STARLETTE               
1 07646U 75010A   26116.83514166 -.00000134  00000+0  51999-5 0  9992
2 07646  49.8270 307.2901 0205649 253.3913 104.4308 13.82349737587433
LAGEOS 1                
1 08820U 76039A   26116.40702875  .00000006  00000+0  00000+0 0  9996
2 08820 109.8066 161.6180 0044672 313.3663  63.4606  6.38664741909830
AJISAI (EGS)            
1 16908U 86061A   26116.83272561 -.00000082  00000+0  10785-3 0  9999
2 16908  50.0098 305.3106 0011425  50.4483  78.8564 12.44515984473996
COSMOS 1989 (ETALON 1)  
1 19751U 89001C   26116.39950394  .00000003  00000+0  00000+0 0  9990
2 19751  64.9174  73.9655 0023356 217.6679 327.5440  2.13155948290260
COSMOS 2024 (ETALON 2)  
1 20026U 89039C   26116.18702837 -.00000024  00000+0  00000+0 0  9996
2 20026  64.9666 312.3270 0020539 212.8390 317.9164  2.13204556287399
LAGEOS 2                
1 22195U 92070B   26111.22194309 -.00000009  00000+0  00000+0 0  9996
2 22195  52.6637 302.6665 0137666 162.3863 358.4565  6.47293633791732
STELLA                  
1 22824U 93061B   26116.82982663 -.00000037  00000+0  31588-5 0  9997
2 22824  98.7757 180.8881 0006945  35.0298 111.3628 14.27468953697449
LARETS                  
1 27944U 03042F   26116.85086779  .00000067  00000+0  22448-4 0  9997
2 27944  98.4101 277.9941 0011992 190.8226 169.2719 14.63859555205856
LARES                   
1 38077U 12006A   26116.80387625 -.00000039  00000+0 -43971-5 0  9991
2 38077  69.4930  20.0134 0006360  90.5552 269.6203 12.54931945650629
LARES-2                 
1 53105U 22080A   26114.95312861 -.00000010  00000+0  00000+0 0  9995
2 53105  70.1721 323.5864 0005358 346.5295  13.5246  6.38965121 88266
